SL-3 R/B                
1 13403U 82079B   26054.16296085  .00008172  00000+0  32804-3 0  9998
2 13403  81.1464 210.2256 0024517 214.0035 145.9628 15.24554556375483
SL-14 R/B               
1 13553U 82092B   26053.71159663  .00000527  00000+0  56443-4 0  9991
2 13553  82.5712 155.4056 0020116 355.3324 120.0933 14.86649303326705
SL-3 R/B                
1 13819U 83010B   26053.93974528  .00018365  00000+0  37605-3 0  9993
2 13819  81.1047  20.3214 0018672  97.4470 262.8897 15.45768351355664
SL-3 R/B                
1 14208U 83075B   26054.18036735  .00013487  00000+0  36035-3 0  9990
2 14208  97.6143  58.2140 0019699 283.1736  76.7310 15.38021050327923
COSMOS 1536             
1 14699U 84013A   26053.68121958  .00007247  00000+0  30073-3 0  9996
2 14699  82.5447 122.7658 0013495 341.1250  18.9485 15.23603550270330
SL-14 R/B               
1 14820U 84027B   26054.01351383  .00000423  00000+0  45548-4 0  9995
2 14820  82.5381 258.7813 0018615  26.5642 333.6524 14.85959922245454
SL-8 R/B                
1 15483U 85006B   26054.06365898  .00000140  00000+0  55207-4 0  9999
2 15483  74.0446 288.0635 0019032 209.0061 302.3996 14.37774839151926
SL-12 R/B(2)            
1 15772U 85042D   26054.19309977  .00000078  00000+0  56504-4 0  9991
2 15772  71.1075 118.3575 0034026 151.7221 219.0823 14.21978330112332
SL-14 R/B               
1 15945U 85069B   26054.20468853  .00000548  00000+0  59200-4 0  9991
2 15945  82.5256  38.5544 0017376 237.9591 121.9938 14.86414160170683
SL-16 R/B               
1 16182U 85097B   26054.10926719  .00000268  00000+0  15822-3 0  9995
2 16182  71.0033 171.2473 0009735 276.3347 256.6523 14.16595993 85166
SL-14 R/B               
1 16496U 86006B   26054.05094301  .00000582  00000+0  59361-4 0  9997
2 16496  82.5241 273.5177 0075657 322.1927  37.3988 14.86794194147034
COSMOS 1743             
1 16719U 86034A   26054.06214582  .00037323  00000+0  50753-3 0  9990
2 16719  82.5305  89.1702 0003553   8.5556 351.5759 15.57405586177973
